NORAD_CAT_ID,OBJECT_NAME,OBJECT_TYPE,EPOCH,MEAN_MOTION,ECCENTRICITY,INCLINATION,RA_OF_ASC_NODE,ARG_OF_PERICENTER,MEAN_ANOMALY,BSTAR,MEAN_MOTION_DOT,MEAN_MOTION_DDOT,TLE_LINE0,TLE_LINE1,TLE_LINE2,SEMIMAJOR_AXIS,PERIOD,APOGEE,PERIGEE,DECAYED
52677.0,STARLINK-4028,PAYLOAD,2023-08-18 10:36:44,15.08836737,0.0001178,53.2165,18.1239,88.6052,271.5075,2.0139e-06,-2.56e-06,0.0,0 STARLINK-4028,1 52677U 22053X   23230.44217689 -.00000256  00000-0  20139-5 0  9994,2 52677  53.2165  18.1239 0001178  88.6052 271.5075 15.08836737 69708,6917.89,95.438,540.57,538.94,0.0
52677.0,STARLINK-4028,PAYLOAD,2023-08-18 16:58:16,15.08843818,0.0001156,53.2167,16.9338,93.1469,266.9655,9.9218e-05,1.292e-05,0.0,0 STARLINK-4028,1 52677U 22053X   23230.70713250  .00001292  00000-0  99218-4 0  9991,2 52677  53.2167  16.9338 0001156  93.1469 266.9655 15.08843818 69749,6917.869,95.437,540.533,538.934,0.0
52677.0,STARLINK-4028,PAYLOAD,2023-08-19 05:41:21,15.08838113,0.0001416,53.2167,14.555,94.9677,265.1476,9.7044e-05,1.257e-05,0.0,0 STARLINK-4028,1 52677U 22053X   23231.23705648  .00001257  00000-0  97044-4 0  9998,2 52677  53.2167  14.5550 0001416  94.9677 265.1476 15.08838113 69821,6917.886,95.438,540.731,538.772,0.0
52677.0,STARLINK-4028,PAYLOAD,2023-08-20 08:42:55,15.08834543,0.0001342,53.2171,9.4989,91.5981,268.5165,0.00011221,1.498e-05,0.0,0 STARLINK-4028,1 52677U 22053X   23232.36314267  .00001498  00000-0  11221-3 0  9995,2 52677  53.2171   9.4989 0001342  91.5981 268.5165 15.08834543 69997,6917.897,95.438,540.69,538.834,0.0
52677.0,STARLINK-4028,PAYLOAD,2023-08-20 16:39:50,15.08844377,0.0001123,53.2174,8.013,91.2481,268.864,0.00018425,2.646e-05,0.0,0 STARLINK-4028,1 52677U 22053X   23232.69433616  .00002646  00000-0  18425-3 0  9990,2 52677  53.2174   8.0130 0001123  91.2481 268.8640 15.08844377 70047,6917.867,95.437,540.509,538.955,0.0
52677.0,STARLINK-4028,PAYLOAD,2023-08-21 03:47:33,15.08839068,0.0001304,53.218,5.9314,85.7985,274.3156,6.8948e-05,8.1e-06,0.0,0 STARLINK-4028,1 52677U 22053X   23233.15802136  .00000810  00000-0  68948-4 0  9996,2 52677  53.2180   5.9314 0001304  85.7985 274.3156 15.08839068 70115,6917.883,95.438,540.65,538.846,0.0
52677.0,STARLINK-4028,PAYLOAD,2023-08-23 11:26:02,15.08842668,0.0001289,53.2186,355.5259,90.302,269.812,0.00011409,1.528e-05,0.0,0 STARLINK-4028,1 52677U 22053X   23235.47642171  .00001528  00000-0  11409-3 0  9990,2 52677  53.2186 355.5259 0001289  90.3020 269.8120 15.08842668 70465,6917.872,95.437,540.629,538.846,0.0
52677.0,STARLINK-4028,PAYLOAD,2023-08-24 16:02:59,15.08850825,0.0001409,53.2194,350.1669,117.6628,242.4507,9.309e-06,-1.4e-06,0.0,0 STARLINK-4028,1 52677U 22053X   23236.66874200 -.00000140  00000-0  93090-5 0  9990,2 52677  53.2194 350.1669 0001409 117.6628 242.4507 15.08850825 70641,6917.847,95.437,540.687,538.738,0.0
52677.0,STARLINK-4028,PAYLOAD,2023-08-25 11:07:37,15.08844766,0.0001345,53.2188,346.5994,113.7522,246.3611,-3.0582e-05,-7.75e-06,0.0,0 STARLINK-4028,1 52677U 22053X   23237.46362314 -.00000775  00000-0 -30582-4 0  9998,2 52677  53.2188 346.5994 0001345 113.7522 246.3611 15.08844766 70762,6917.866,95.437,540.661,538.8,0.0
52677.0,STARLINK-4028,PAYLOAD,2023-08-25 19:04:32,15.0885064,0.0001249,53.2186,345.1139,102.8355,257.2777,4.6029e-05,4.45e-06,0.0,0 STARLINK-4028,1 52677U 22053X   23237.79481628  .00000445  00000-0  46029-4 0  9999,2 52677  53.2186 345.1139 0001249 102.8355 257.2777 15.08850640 70810,6917.848,95.437,540.577,538.849,0.0
52677.0,STARLINK-4028,PAYLOAD,2023-08-26 10:58:24,15.08834234,0.0002052,53.2178,342.1363,129.3924,230.725,7.8879e-05,9.67e-06,0.0,0 STARLINK-4028,1 52677U 22053X   23238.45722633  .00000967  00000-0  78879-4 0  9994,2 52677  53.2178 342.1363 0002052 129.3924 230.7250 15.08834234 70910,6917.898,95.438,541.183,538.343,0.0
52677.0,STARLINK-4028,PAYLOAD,2023-08-26 15:44:33,15.08842203,0.0001505,53.2182,341.2477,110.5121,249.6033,8.6971e-05,1.097e-05,0.0,0 STARLINK-4028,1 52677U 22053X   23238.65594282  .00001097  00000-0  86971-4 0  9990,2 52677  53.2182 341.2477 0001505 110.5121 249.6033 15.08842203 70940,6917.874,95.437,540.78,538.698,0.0
52677.0,STARLINK-4028,PAYLOAD,2023-08-27 07:38:25,15.08837221,0.000133,53.2189,338.2751,95.3259,264.7885,7.4058e-05,8.91e-06,0.0,0 STARLINK-4028,1 52677U 22053X   23239.31834878  .00000891  00000-0  74058-4 0  9996,2 52677  53.2189 338.2751 0001330  95.3259 264.7885 15.08837221 71045,6917.889,95.438,540.674,538.834,0.0
52677.0,STARLINK-4028,PAYLOAD,2023-08-27 15:35:20,15.08842203,0.0001316,53.2192,336.7885,88.1251,271.9891,0.00011044,1.47e-05,0.0,0 STARLINK-4028,1 52677U 22053X   23239.64954560  .00001470  00000-0  11044-3 0  9992,2 52677  53.2192 336.7885 0001316  88.1251 271.9891 15.08842203 71500,6917.874,95.437,540.649,538.828,0.0
52677.0,STARLINK-4028,PAYLOAD,2023-08-28 09:04:35,15.08836271,0.000136,53.2187,333.5194,93.5776,266.5372,-6.8316e-06,-3.97e-06,0.0,0 STARLINK-4028,1 52677U 22053X   23240.37819433 -.00000397  00000-0 -68316-5 0  9998,2 52677  53.2187 333.5194 0001360  93.5776 266.5372 15.08836271 71202,6917.892,95.438,540.698,538.816,0.0
52677.0,STARLINK-4028,PAYLOAD,2023-08-28 15:26:08,15.08842837,0.0001379,53.2171,332.3297,92.475,267.64,4.3345e-05,4.02e-06,0.0,0 STARLINK-4028,1 52677U 22053X   23240.64314833  .00000402  00000-0  43345-4 0  9991,2 52677  53.2171 332.3297 0001379  92.4750 267.6400 15.08842837 71249,6917.872,95.437,540.691,538.783,0.0
52677.0,STARLINK-4028,PAYLOAD,2023-08-29 13:41:32,15.08836732,0.0001285,53.2175,328.1674,89.4409,270.6731,2.6631e-05,1.36e-06,0.0,0 STARLINK-4028,1 52677U 22053X   23241.57051439  .00000136  00000-0  26631-4 0  9997,2 52677  53.2175 328.1674 0001285  89.4409 270.6731 15.08836732 71381,6917.89,95.438,540.644,538.866,0.0
52677.0,STARLINK-4028,PAYLOAD,2023-08-30 15:07:41,15.0885007,0.0001258,53.2173,323.4088,94.065,266.0486,9.9457e-05,1.296e-05,0.0,0 STARLINK-4028,1 52677U 22053X   23242.63034517  .00001296  00000-0  99457-4 0  9997,2 52677  53.2173 323.4088 0001258  94.0650 266.0486 15.08850070 71541,6917.85,95.437,540.585,538.844,0.0
52677.0,STARLINK-4028,PAYLOAD,2023-08-30 23:04:37,15.08845264,0.0001379,53.2173,321.9231,85.0411,275.0738,5.4188e-05,5.75e-06,0.0,0 STARLINK-4028,1 52677U 22053X   23242.96154849  .00000575  00000-0  54188-4 0  9995,2 52677  53.2173 321.9231 0001379  85.0411 275.0738 15.08845264 71597,6917.864,95.437,540.683,538.775,0.0
52677.0,STARLINK-4028,PAYLOAD,2023-08-31 16:33:51,15.08845594,0.00013,53.2173,318.6517,89.6433,270.4708,0.00016036,2.266e-05,0.0,0 STARLINK-4028,1 52677U 22053X   23243.69018408  .00002266  00000-0  16036-3 0  9994,2 52677  53.2173 318.6517 0001300  89.6433 270.4708 15.08845594 72116,6917.863,95.437,540.628,538.829,0.0
52677.0,STARLINK-4028,PAYLOAD,2023-09-01 11:38:30,15.08835137,8.97e-05,53.217,315.0866,83.5919,276.5175,1.5292e-05,-4.4e-07,0.0,0 STARLINK-4028,1 52677U 22053X   23244.48507444 -.00000044  00000-0  15292-4 0  9992,2 52677  53.2170 315.0866 0000897  83.5919 276.5175 15.08835137 71827,6917.895,95.438,540.381,539.14,0.0
52677.0,STARLINK-4028,PAYLOAD,2023-09-01 16:24:39,15.08845049,0.0001469,53.2163,314.1908,94.6382,265.4778,1.4418e-05,-5.8e-07,0.0,0 STARLINK-4028,1 52677U 22053X   23244.68378770 -.00000058  00000-0  14418-4 0  9996,2 52677  53.2163 314.1908 0001469  94.6382 265.4778 15.08845049 71851,6917.865,95.437,540.746,538.714,0.0
52677.0,STARLINK-4028,PAYLOAD,2023-09-02 05:07:43,15.08891535,0.0001633,53.2158,311.8115,88.395,271.723,-0.00070038,-0.00011433,0.0,0 STARLINK-4028,1 52677U 22053X   23245.21369543 -.00011433  00000-0 -70038-3 0  9993,2 52677  53.2158 311.8115 0001633  88.3950 271.7230 15.08891535 71936,6917.723,95.434,540.718,538.458,0.0
52677.0,STARLINK-4028,PAYLOAD,2023-09-02 11:29:15,15.08869472,0.0001682,53.2123,310.6243,91.162,268.9565,-0.00033569,-5.631e-05,0.0,0 STARLINK-4028,1 52677U 22053X   23245.47865582 -.00005631  00000-0 -33569-3 0  9996,2 52677  53.2123 310.6243 0001682  91.1620 268.9565 15.08869472 72381,6917.79,95.436,540.819,538.492,0.0
52677.0,STARLINK-4028,PAYLOAD,2023-09-02 16:15:26,15.08842592,0.0001845,53.2127,309.7322,104.1757,255.944,0.000126,1.718e-05,0.0,0 STARLINK-4028,1 52677U 22053X   23245.67738504  .00001718  00000-0  12600-3 0  9994,2 52677  53.2127 309.7322 0001845 104.1757 255.9440 15.08842592 72000,6917.872,95.437,541.014,538.461,0.0
52677.0,STARLINK-4028,PAYLOAD,2023-09-02 21:01:35,15.08832847,7.59e-05,53.2209,308.8403,231.4477,128.6447,8.905e-05,1.13e-05,0.0,0 STARLINK-4028,1 52677U 22053X   23245.87610564  .00001130  00000-0  89050-4 0  9993,2 52677  53.2209 308.8403 0000759 231.4477 128.6447 15.08832847 72440,6917.902,95.438,540.292,539.242,0.0
52677.0,STARLINK-4028,PAYLOAD,2023-09-03 11:20:04,15.08835484,9.09e-05,53.2132,306.1639,113.5951,246.5137,5.1732e-05,5.36e-06,0.0,0 STARLINK-4028,1 52677U 22053X   23246.47227145  .00000536  00000-0  51732-4 0  9994,2 52677  53.2132 306.1639 0000909 113.5951 246.5137 15.08835484 72537,6917.894,95.438,540.388,539.13,0.0
52677.0,STARLINK-4028,PAYLOAD,2023-09-03 14:30:49,15.08849228,0.0001586,53.217,305.567,95.657,264.4603,0.00018504,2.659e-05,0.0,0 STARLINK-4028,1 52677U 22053X   23246.60474071  .00002659  00000-0  18504-3 0  9998,2 52677  53.2170 305.5670 0001586  95.6570 264.4603 15.08849228 72141,6917.852,95.437,540.814,538.62,0.0
52677.0,STARLINK-4028,PAYLOAD,2023-09-03 20:52:23,15.08832892,0.0001874,53.2157,304.3783,89.6449,270.4757,2.5597e-05,1.19e-06,0.0,0 STARLINK-4028,1 52677U 22053X   23246.86971633  .00000119  00000-0  25597-4 0  9992,2 52677  53.2157 304.3783 0001874  89.6449 270.4757 15.08832892 72186,6917.902,95.438,541.064,538.471,0.0
52677.0,STARLINK-4028,PAYLOAD,2023-09-04 12:46:15,15.08825835,0.000171,53.2196,301.4035,83.3517,276.7669,-9.8489e-05,-1.855e-05,0.0,0 STARLINK-4028,1 52677U 22053X   23247.53212787 -.00001855  00000-0 -98489-4 0  9995,2 52677  53.2196 301.4035 0001710  83.3517 276.7669 15.08825835 72699,6917.924,95.438,540.972,538.606,0.0
